{
    "links": {
        "self": "http://www.neowsapp.com/rest/v1/neo/3734615?api_key=iIulBulltgU6a56xZRHN4H3l9WmuAYTsLGpBGhQ2"
    },
    "id": "3734615",
    "neo_reference_id": "3734615",
    "name": "(2015 VY105)",
    "designation": "2015 VY105",
    "nasa_jpl_url": "http://ssd.jpl.nasa.gov/sbdb.cgi?sstr=3734615",
    "absolute_magnitude_h": 29.0,
    "estimated_diameter": {
        "kilometers": {
            "estimated_diameter_min": 0.0042126461,
            "estimated_diameter_max": 0.0094197631
        },
        "meters": {
            "estimated_diameter_min": 4.2126461056,
            "estimated_diameter_max": 9.4197630572
        },
        "miles": {
            "estimated_diameter_min": 0.0026176161,
            "estimated_diameter_max": 0.0058531676
        },
        "feet": {
            "estimated_diameter_min": 13.821017849,
            "estimated_diameter_max": 30.9047354285
        }
    },
    "is_potentially_hazardous_asteroid": false,
    "close_approach_data": [
        {
            "close_approach_date": "2015-11-15",
            "close_approach_date_full": "2015-Nov-15 02:40",
            "epoch_date_close_approach": 1447555200000,
            "relative_velocity": {
                "kilometers_per_second": "17.42267093",
                "kilometers_per_hour": "62721.615347842",
                "miles_per_hour": "38972.7726032188"
            },
            "miss_distance": {
                "astronomical": "0.0002313233",
                "lunar": "0.0899847637",
                "kilometers": "34605.472961371",
                "miles": "21502.8437980798"
            },
            "orbiting_body": "Earth"
        },
        {
            "close_approach_date": "2015-11-15",
            "close_approach_date_full": "2015-Nov-15 06:02",
            "epoch_date_close_approach": 1447567320000,
            "relative_velocity": {
                "kilometers_per_second": "17.6967032172",
                "kilometers_per_hour": "63708.1315819196",
                "miles_per_hour": "39585.7554265545"
            },
            "miss_distance": {
                "astronomical": "0.0019734061",
                "lunar": "0.7676549729",
                "kilometers": "295217.349205007",
                "miles": "183439.5545908166"
            },
            "orbiting_body": "Moon"
        },
        {
            "close_approach_date": "2016-03-29",
            "close_approach_date_full": "2016-Mar-29 02:36",
            "epoch_date_close_approach": 1459218960000,
            "relative_velocity": {
                "kilometers_per_second": "19.8506637082",
                "kilometers_per_hour": "71462.3893494646",
                "miles_per_hour": "44403.9496488381"
            },
            "miss_distance": {
                "astronomical": "0.0611090727",
                "lunar": "23.7714292803",
                "kilometers": "9141787.113595149",
                "miles": "5680443.1067410962"
            },
            "orbiting_body": "Mars"
        },
        {
            "close_approach_date": "2067-12-27",
            "close_approach_date_full": "2067-Dec-27 11:04",
            "epoch_date_close_approach": 3092209440000,
            "relative_velocity": {
                "kilometers_per_second": "10.0460474129",
                "kilometers_per_hour": "36165.7706864173",
                "miles_per_hour": "22472.0034579019"
            },
            "miss_distance": {
                "astronomical": "1.8633187467",
                "lunar": "724.8309924663",
                "kilometers": "278748515.637389529",
                "miles": "173206295.9344083402"
            },
            "orbiting_body": "Juptr"
        },
        {
            "close_approach_date": "2079-10-17",
            "close_approach_date_full": "2079-Oct-17 08:59",
            "epoch_date_close_approach": 3464758740000,
            "relative_velocity": {
                "kilometers_per_second": "8.8373402575",
                "kilometers_per_hour": "31814.4249269546",
                "miles_per_hour": "19768.2464219735"
            },
            "miss_distance": {
                "astronomical": "1.3636624231",
                "lunar": "530.4646825859",
                "kilometers": "204000993.894798797",
                "miles": "126760339.6511735186"
            },
            "orbiting_body": "Juptr"
        }
    ],
    "orbital_data": {
        "orbit_id": "7",
        "orbit_determination_date": "2017-04-06 08:30:39",
        "first_observation_date": "2015-11-14",
        "last_observation_date": "2015-11-15",
        "data_arc_in_days": 1,
        "observations_used": 34,
        "orbit_uncertainty": "7",
        "minimum_orbit_intersection": "2.23478E-5",
        "jupiter_tisserand_invariant": "2.930",
        "epoch_osculation": "2459000.5",
        "eccentricity": ".7087077757334922",
        "semi_major_axis": "2.702487040606889",
        "inclination": "8.734942479490421",
        "ascending_node_longitude": "52.11786488334645",
        "orbital_period": "1622.721001560804",
        "perihelion_distance": ".7872134611097931",
        "perihelion_argument": "59.42888286345553",
        "aphelion_distance": "4.617760620103986",
        "perihelion_time": "2459001.173408985024",
        "mean_anomaly": "359.8506044881558",
        "mean_motion": ".2218495968522847",
        "equinox": "J2000",
        "orbit_class": {
            "orbit_class_type": "APO",
            "orbit_class_description": "Near-Earth asteroid orbits which cross the Earth’s orbit similar to that of 1862 Apollo",
            "orbit_class_range": "a (semi-major axis) > 1.0 AU; q (perihelion) < 1.017 AU"
        }
    },
    "is_sentry_object": false
}